start=new Date('2022-12-16T00:00:00.000Z').valueOf();
sats=[{"INCLINATION":"53.0556","MEAN_ELEMENT_THEORY":"SGP4","PERIAPSIS":"546.024","RA_OF_ASC_NODE":"273.2707","PERIOD":"95.592","SITE":"AFETR","MEAN_MOTION_DDOT":"0.0000000000000","MEAN_ANOMALY":"304.9415","CLASSIFICATION_TYPE":"U","TIME_SYSTEM":"UTC","RCS_SIZE":"LARGE","MEAN_MOTION":"15.06399630","ECCENTRICITY":"0.00017190","TLE_LINE1":"1 46354U 20062AF  22349.81826652  .00000615  00000-0  60181-4 0  9992","LAUNCH_DATE":"2020-09-03","OBJECT_ID":"2020-062AF","OBJECT_TYPE":"PAYLOAD","GP_ID":"220525133","TLE_LINE2":"2 46354  53.0556 273.2707 0001719  55.1735 304.9415 15.06399630126478","CENTER_NAME":"EARTH","COUNTRY_CODE":"US","REF_FRAME":"TEME","NORAD_CAT_ID":"46354","SEMIMAJOR_AXIS":"6925.350","ELEMENT_SET_NO":"999","BSTAR":"0.00006018100000","OBJECT_NAME":"STARLINK-1657","EPOCH":"2022-12-15T19:38:18.227328","REV_AT_EPOCH":"12647","EPHEMERIS_TYPE":"0","ARG_OF_PERICENTER":"55.1735","FILE":"3702726","MEAN_MOTION_DOT":"0.00000615","APOAPSIS":"548.405","DECAY_DATE":null},{"PERIAPSIS":"546.208","MEAN_ELEMENT_THEORY":"SGP4","INCLINATION":"53.0551","RA_OF_ASC_NODE":"273.3930","PERIOD":"95.592","SITE":"AFETR","MEAN_MOTION_DDOT":"0.0000000000000","CLASSIFICATION_TYPE":"U","MEAN_ANOMALY":"288.0831","TIME_SYSTEM":"UTC","MEAN_MOTION":"15.06396795","RCS_SIZE":"LARGE","OBJECT_ID":"2020-062AG","LAUNCH_DATE":"2020-09-03","TLE_LINE1":"1 46355U 20062AG  22349.79246510  .00000396  00000-0  45495-4 0  9996","ECCENTRICITY":"0.00014660","GP_ID":"220525384","TLE_LINE2":"2 46355  53.0551 273.3930 0001466  72.0318 288.0831 15.06396795126470","OBJECT_TYPE":"PAYLOAD","CENTER_NAME":"EARTH","COUNTRY_CODE":"US","NORAD_CAT_ID":"46355","REF_FRAME":"TEME","ELEMENT_SET_NO":"999","SEMIMAJOR_AXIS":"6925.358","EPOCH":"2022-12-15T19:01:08.984640","OBJECT_NAME":"STARLINK-1661","BSTAR":"0.00004549500000","ARG_OF_PERICENTER":"72.0318","EPHEMERIS_TYPE":"0","REV_AT_EPOCH":"12647","DECAY_DATE":null,"APOAPSIS":"548.239","MEAN_MOTION_DOT":"0.00000396","FILE":"3702726"},{"TLE_LINE2":"2 46356  53.0548 273.3401 0001551  84.1604 275.9562 15.06401692126476","GP_ID":"220525634","OBJECT_TYPE":"PAYLOAD","NORAD_CAT_ID":"46356","REF_FRAME":"TEME","COUNTRY_CODE":"US","CENTER_NAME":"EARTH","EPOCH":"2022-12-15T19:15:42.609600","OBJECT_NAME":"STARLINK-1665","BSTAR":"0.00014752000000","ELEMENT_SET_NO":"999","SEMIMAJOR_AXIS":"6925.343","APOAPSIS":"548.282","DECAY_DATE":null,"FILE":"3702726","MEAN_MOTION_DOT":"0.00001917","EPHEMERIS_TYPE":"0","ARG_OF_PERICENTER":"84.1604","REV_AT_EPOCH":"12647","MEAN_ELEMENT_THEORY":"SGP4","PERIAPSIS":"546.134","INCLINATION":"53.0548","MEAN_MOTION_DDOT":"0.0000000000000","SITE":"AFETR","PERIOD":"95.592","RA_OF_ASC_NODE":"273.3401","TIME_SYSTEM":"UTC","CLASSIFICATION_TYPE":"U","MEAN_ANOMALY":"275.9562","OBJECT_ID":"2020-062AH","LAUNCH_DATE":"2020-09-03","TLE_LINE1":"1 46356U 20062AH  22349.80257650  .00001917  00000-0  14752-3 0  9997","ECCENTRICITY":"0.00015510","MEAN_MOTION":"15.06401692","RCS_SIZE":"LARGE"},{"OBJECT_ID":"2020-062AJ","TLE_LINE1":"1 46357U 20062AJ  22349.73534977  .00021113  00000-0  14318-2 0  9997","LAUNCH_DATE":"2020-09-03","ECCENTRICITY":"0.00013290","RCS_SIZE":"LARGE","MEAN_MOTION":"15.06406700","TIME_SYSTEM":"UTC","CLASSIFICATION_TYPE":"U","MEAN_ANOMALY":"257.7655","MEAN_MOTION_DDOT":"0.0000000000000","SITE":"AFETR","PERIOD":"95.592","RA_OF_ASC_NODE":"253.6412","PERIAPSIS":"546.273","MEAN_ELEMENT_THEORY":"SGP4","INCLINATION":"53.0514","DECAY_DATE":null,"APOAPSIS":"548.113","FILE":"3702726","MEAN_MOTION_DOT":"0.00021113","REV_AT_EPOCH":"12674","EPHEMERIS_TYPE":"0","ARG_OF_PERICENTER":"102.3483","EPOCH":"2022-12-15T17:38:54.220128","BSTAR":"0.00143180000000","OBJECT_NAME":"STARLINK-1666","SEMIMAJOR_AXIS":"6925.328","ELEMENT_SET_NO":"999","NORAD_CAT_ID":"46357","REF_FRAME":"TEME","COUNTRY_CODE":"US","CENTER_NAME":"EARTH","GP_ID":"220524385","TLE_LINE2":"2 46357  53.0514 253.6412 0001329 102.3483 257.7655 15.06406700126740","OBJECT_TYPE":"PAYLOAD"},{"BSTAR":"0.00010397000000","OBJECT_NAME":"STARLINK-1690","EPOCH":"2022-12-15T04:25:23.088864","SEMIMAJOR_AXIS":"6925.388","ELEMENT_SET_NO":"999","FILE":"3702025","MEAN_MOTION_DOT":"0.00001267","APOAPSIS":"548.454","DECAY_DATE":null,"REV_AT_EPOCH":"12638","EPHEMERIS_TYPE":"0","ARG_OF_PERICENTER":"63.9321","OBJECT_TYPE":"PAYLOAD","GP_ID":"220485278","TLE_LINE2":"2 46358  53.0563 276.1243 0001734  63.9321 296.1847 15.06387183126383","REF_FRAME":"TEME","NORAD_CAT_ID":"46358","CENTER_NAME":"EARTH","COUNTRY_CODE":"US","TIME_SYSTEM":"UTC","MEAN_ANOMALY":"296.1847","CLASSIFICATION_TYPE":"U","TLE_LINE1":"1 46358U 20062AK  22349.18429501  .00001267  00000-0  10397-3 0  9995","ECCENTRICITY":"0.00017340","LAUNCH_DATE":"2020-09-03","OBJECT_ID":"2020-062AK","MEAN_MOTION":"15.06387183","RCS_SIZE":"LARGE","INCLINATION":"53.0563","PERIAPSIS":"546.052","MEAN_ELEMENT_THEORY":"SGP4","MEAN_MOTION_DDOT":"0.0000000000000","SITE":"AFETR","RA_OF_ASC_NODE":"276.1243","PERIOD":"95.593"},{"TLE_LINE1":"1 46359U 20062AL  22349.82794232  .00001170  00000-0  97424-4 0  9993","LAUNCH_DATE":"2020-09-03","ECCENTRICITY":"0.00012300","OBJECT_ID":"2020-062AL","RCS_SIZE":"LARGE","MEAN_MOTION":"15.06396836","TIME_SYSTEM":"UTC","MEAN_ANOMALY":"303.6860","CLASSIFICATION_TYPE":"U","MEAN_MOTION_DDOT":"0.0000000000000","SITE":"AFETR","RA_OF_ASC_NODE":"228.2318","PERIOD":"95.592","INCLINATION":"53.0538","PERIAPSIS":"546.371","MEAN_ELEMENT_THEORY":"SGP4","MEAN_MOTION_DOT":"0.00001170","FILE":"3702726","DECAY_DATE":null,"APOAPSIS":"548.075","ARG_OF_PERICENTER":"56.4246","EPHEMERIS_TYPE":"0","REV_AT_EPOCH":"12710","OBJECT_NAME":"STARLINK-1707","BSTAR":"0.00009742400000","EPOCH":"2022-12-15T19:52:14.216448","ELEMENT_SET_NO":"999","SEMIMAJOR_AXIS":"6925.358","REF_FRAME":"TEME","NORAD_CAT_ID":"46359","COUNTRY_CODE":"US","CENTER_NAME":"EARTH","OBJECT_TYPE":"PAYLOAD","TLE_LINE2":"2 46359  53.0538 228.2318 0001230  56.4246 303.6860 15.06396836127106","GP_ID":"220525885"},{"SITE":"AFETR","MEAN_MOTION_DDOT":"0.0000000000000","PERIOD":"95.592","RA_OF_ASC_NODE":"228.1321","PERIAPSIS":"545.815","MEAN_ELEMENT_THEORY":"SGP4","INCLINATION":"53.0527","OBJECT_ID":"2020-062AM","LAUNCH_DATE":"2020-09-03","TLE_LINE1":"1 46360U 20062AM  22349.85005675  .00003208  00000-0  23412-3 0  9993","ECCENTRICITY":"0.00019790","MEAN_MOTION":"15.06409306","RCS_SIZE":"LARGE","TIME_SYSTEM":"UTC","CLASSIFICATION_TYPE":"U","MEAN_ANOMALY":"311.9156","NORAD_CAT_ID":"46360","REF_FRAME":"TEME","COUNTRY_CODE":"US","CENTER_NAME":"EARTH","GP_ID":"220526135","TLE_LINE2":"2 46360  53.0527 228.1321 0001979  48.2002 311.9156 15.06409306127116","OBJECT_TYPE":"PAYLOAD","APOAPSIS":"548.556","DECAY_DATE":null,"MEAN_MOTION_DOT":"0.00003208","FILE":"3702726","ARG_OF_PERICENTER":"48.2002","EPHEMERIS_TYPE":"0","REV_AT_EPOCH":"12711","EPOCH":"2022-12-15T20:24:04.903200","OBJECT_NAME":"STARLINK-1713","BSTAR":"0.00023412000000","ELEMENT_SET_NO":"999","SEMIMAJOR_AXIS":"6925.320"},{"COUNTRY_CODE":"US","CENTER_NAME":"EARTH","NORAD_CAT_ID":"46361","REF_FRAME":"TEME","TLE_LINE2":"2 46361  53.0548 228.2455 0001325  76.1374 283.9762 15.06399311127100","GP_ID":"220524885","OBJECT_TYPE":"PAYLOAD","EPHEMERIS_TYPE":"0","ARG_OF_PERICENTER":"76.1374","REV_AT_EPOCH":"12710","DECAY_DATE":null,"APOAPSIS":"548.133","MEAN_MOTION_DOT":"0.00001104","FILE":"3702726","ELEMENT_SET_NO":"999","SEMIMAJOR_AXIS":"6925.351","EPOCH":"2022-12-15T19:40:15.485952","OBJECT_NAME":"STARLINK-1722","BSTAR":"0.00009296600000","PERIOD":"95.592","RA_OF_ASC_NODE":"228.2455","SITE":"AFETR","MEAN_MOTION_DDOT":"0.0000000000000","MEAN_ELEMENT_THEORY":"SGP4","PERIAPSIS":"546.298","INCLINATION":"53.0548","MEAN_MOTION":"15.06399311","RCS_SIZE":"LARGE","OBJECT_ID":"2020-062AN","TLE_LINE1":"1 46361U 20062AN  22349.81962368  .00001104  00000-0  92966-4 0  9995","ECCENTRICITY":"0.00013250","LAUNCH_DATE":"2020-09-03","CLASSIFICATION_TYPE":"U","MEAN_ANOMALY":"283.9762","TIME_SYSTEM":"UTC"},{"OBJECT_NAME":"STARLINK-1726","BSTAR":"0.00024585000000","EPOCH":"2022-12-15T09:36:32.352480","ELEMENT_SET_NO":"999","SEMIMAJOR_AXIS":"6925.332","MEAN_MOTION_DOT":"0.00003383","FILE":"3702025","DECAY_DATE":null,"APOAPSIS":"548.443","EPHEMERIS_TYPE":"0","ARG_OF_PERICENTER":"62.1257","REV_AT_EPOCH":"12704","OBJECT_TYPE":"PAYLOAD","GP_ID":"220485777","TLE_LINE2":"2 46362  53.0542 230.1548 0001798  62.1257 297.9914 15.06405280127049","REF_FRAME":"TEME","NORAD_CAT_ID":"46362","COUNTRY_CODE":"US","CENTER_NAME":"EARTH","TIME_SYSTEM":"UTC","MEAN_ANOMALY":"297.9914","CLASSIFICATION_TYPE":"U","TLE_LINE1":"1 46362U 20062AP  22349.40037445  .00003383  00000-0  24585-3 0  9992","LAUNCH_DATE":"2020-09-03","ECCENTRICITY":"0.00017980","OBJECT_ID":"2020-062AP","MEAN_MOTION":"15.06405280","RCS_SIZE":"LARGE","INCLINATION":"53.0542","MEAN_ELEMENT_THEORY":"SGP4","PERIAPSIS":"545.952","SITE":"AFETR","MEAN_MOTION_DDOT":"0.0000000000000","PERIOD":"95.592","RA_OF_ASC_NODE":"230.1548"},{"PERIOD":"95.592","RA_OF_ASC_NODE":"228.0791","MEAN_MOTION_DDOT":"0.0000000000000","SITE":"AFETR","MEAN_ELEMENT_THEORY":"SGP4","PERIAPSIS":"546.415","INCLINATION":"53.0536","MEAN_MOTION":"15.06394920","RCS_SIZE":"LARGE","OBJECT_ID":"2020-062AQ","TLE_LINE1":"1 46363U 20062AQ  22349.85649029  .00000924  00000-0  80918-4 0  9990","LAUNCH_DATE":"2020-09-03","ECCENTRICITY":"0.00011760","CLASSIFICATION_TYPE":"U","MEAN_ANOMALY":"286.5337","TIME_SYSTEM":"UTC","CENTER_NAME":"EARTH","COUNTRY_CODE":"US","NORAD_CAT_ID":"46363","REF_FRAME":"TEME","TLE_LINE2":"2 46363  53.0536 228.0791 0001176  73.5781 286.5337 15.06394920127116","GP_ID":"220525385","OBJECT_TYPE":"PAYLOAD","EPHEMERIS_TYPE":"0","ARG_OF_PERICENTER":"73.5781","REV_AT_EPOCH":"12711","DECAY_DATE":null,"APOAPSIS":"548.044","FILE":"3702726","MEAN_MOTION_DOT":"0.00000924","ELEMENT_SET_NO":"999","SEMIMAJOR_AXIS":"6925.364","EPOCH":"2022-12-15T20:33:20.761056","OBJECT_NAME":"STARLINK-1739","BSTAR":"0.00008091800000"}];
